[{"OBJECT_NAME":"TIANHUI 1-04","OBJECT_ID":"2021-067A","EPOCH":"2026-03-09T22:48:57.841344","MEAN_MOTION":15.23549064,"ECCENTRICITY":8.015e-5,"INCLINATION":97.2864,"RA_OF_ASC_NODE":139.9989,"ARG_OF_PERICENTER":74.6542,"MEAN_ANOMALY":285.4784,"EPHEMERIS_TYPE":0,"CLASSIFICATION_TYPE":"U","NORAD_CAT_ID":49049,"ELEMENT_SET_NO":999,"REV_AT_EPOCH":25648,"BSTAR":1.6880446e-5,"MEAN_MOTION_DOT":3.36e-6,"MEAN_MOTION_DDOT":0},{"OBJECT_NAME":"KHAYYAM","OBJECT_ID":"2022-096A","EPOCH":"2026-03-09T23:16:46.350624","MEAN_MOTION":15.24771015,"ECCENTRICITY":0.00024081,"INCLINATION":97.351,"RA_OF_ASC_NODE":334.9969,"ARG_OF_PERICENTER":70.558,"MEAN_ANOMALY":289.5917,"EPHEMERIS_TYPE":0,"CLASSIFICATION_TYPE":"U","NORAD_CAT_ID":53370,"ELEMENT_SET_NO":999,"REV_AT_EPOCH":19946,"BSTAR":0.00026923471,"MEAN_MOTION_DOT":6.603e-5,"MEAN_MOTION_DDOT":0}]
